sat44827
1 44827U 19084D   20046.71717956  .00015809  00000-0  14622-3 0  9993
2 44827  96.9954 275.4263 0039588 350.1942   9.8542 15.66568001 11160
